1 42809U 17039G   24048.87970773  .00000212  00000-0  68728-4 0  9999
2 42809  86.4019 348.9929 0002012  77.4263 282.7158 14.34216221348072
1 42810U 17039H   24048.36296411  .00000701  00000-0  20239-3 0  9992
2 42810  86.4469 285.9571 0002118  91.8989 268.2455 14.43293259352393
1 42811U 17039J   24048.94021518  .00000112  00000-0  33012-4 0  9991
2 42811  86.3987  20.4673 0002001  89.2286 270.9139 14.34216699348112
1 42812U 17039K   24048.89873711 -.00000124  00000-0 -51463-4 0  9991
2 42812  86.4019 349.0073 0002059  83.4950 276.6480 14.34216550347950
1 42955U 17061A   24048.97192788  .00000020  00000-0  25215-6 0  9992
2 42955  86.3984  20.5512 0002049  84.0654 276.0775 14.34215845332911
1 42956U 17061B   24048.89580851  .00000499  00000-0  17127-3 0  9996
2 42956  86.3987  20.5210 0002069  86.9987 273.1445 14.34215593332903
1 42957U 17061C   24048.93387187  .00000602  00000-0  20799-3 0  9994
2 42957  86.3985  20.5033 0001958  88.4896 271.6524 14.34218436332918
1 42958U 17061D   24048.95924183  .00000172  00000-0  54474-4 0  9990
2 42958  86.3988  20.5508 0002012  86.0624 274.0802 14.34214790332931
